{"type": "FeatureCollection", "features": [{"type": "Feature", "geometry": {"type": "Point", "coordinates": [177.975427, -17.826099]}, "properties": {"name": "Fiji", "name_long": "Fiji", "continent": "Oceania", "region_un": "Oceania"}}, {"type": "Feature", "geometry": {"type": "Point", "coordinates": [34.959183, -6.051866]}, "properties": {"name": "Tanzania", "name_long": "Tanzania", "continent": "Africa", "region_un": "Africa"}}, {"type": "Feature", "geometry": {"type": "Point", "coordinates": [-12.630304, 23.967592]}, "properties": {"name": "W. Sahara", "name_long": "Western Sahara", "continent": "Africa", "region_un": "Africa"}}, {"type": "Feature", "geometry": {"type": "Point", "coordinates": [-101.9107, 60.324287]}, "properties": {"name": "Canada", "name_long": "Canada", "continent": "North America", "region_un": "Americas"}}, {"type": "Feature", "geometry": {"type": "Point", "coordinates": [-97.482602, 39.538479]}, "properties": {"name": "United States of America", "name_long": "United States", "continent": "North America", "region_un": "Americas"}}, {"type": "Feature", "geometry": {"type": "Point", "coordinates": [68.685548, 49.054149]}, "properties": {"name": "Kazakhstan", "name_long": "Kazakhstan", "continent": "Asia", "region_un": "Asia"}}, {"type": "Feature", "geometry": {"type": "Point", "coordinates": [64.005429, 41.693603]}, "properties": {"name": "Uzbekistan", "name_long": "Uzbekistan", "continent": "Asia", "region_un": "Asia"}}, {"type": "Feature", "geometry": {"type": "Point", "coordinates": [143.910216, -5.695285]}, "properties": {"name": "Papua New Guinea", "name_long": "Papua New Guinea", "continent": "Oceania", "region_un": "Oceania"}}, {"type": "Feature", "geometry": {"type": "Point", "coordinates": [101.892949, -0.954404]}, "properties": {"name": "Indonesia", "name_long": "Indonesia", "continent": "Asia", "region_un": "Asia"}}, {"type": "Feature", "geometry": {"type": "Point", "coordinates": [-64.173331, -33.501159]}, "properties": {"name": "Argentina", "name_long": "Argentina", "continent": "South America", "region_un": "Americas"}}, {"type": "Feature", "geometry": {"type": "Point", "coordinates": [-72.318871, -38.151771]}, "properties": {"name": "Chile", "name_long": "Chile", "continent": "South America", "region_un": "Americas"}}, {"type": "Feature", "geometry": {"type": "Point", "coordinates": [23.458829, -1.858167]}, "properties": {"name": "Dem. Rep. Congo", "name_long": "Democratic Republic of the Congo", "continent": "Africa", "region_un": "Africa"}}, {"type": "Feature", "geometry": {"type": "Point", "coordinates": [45.19238, 3.568925]}, "properties": {"name": "Somalia", "name_long": "Somalia", "continent": "Africa", "region_un": "Africa"}}, {"type": "Feature", "geometry": {"type": "Point", "coordinates": [37.907632, 0.549043]}, "properties": {"name": "Kenya", "name_long": "Kenya", "continent": "Africa", "region_un": "Africa"}}, {"type": "Feature", "geometry": {"type": "Point", "coordinates": [29.260657, 16.330746]}, "properties": {"name": "Sudan", "name_long": "Sudan", "continent": "Africa", "region_un": "Africa"}}, {"type": "Feature", "geometry": {"type": "Point", "coordinates": [18.645041, 15.142959]}, "properties": {"name": "Chad", "name_long": "Chad", "continent": "Africa", "region_un": "Africa"}}, {"type": "Feature", "geometry": {"type": "Point", "coordinates": [-72.224051, 19.263784]}, "properties": {"name": "Haiti", "name_long": "Haiti", "continent": "North America", "region_un": "Americas"}}, {"type": "Feature", "geometry": {"type": "Point", "coordinates": [-70.653998, 19.104137]}, "properties": {"name": "Dominican Rep.", "name_long": "Dominican Republic", "continent": "North America", "region_un": "Americas"}}, {"type": "Feature", "geometry": {"type": "Point", "coordinates": [44.686469, 58.249357]}, "properties": {"name": "Russia", "name_long": "Russian Federation", "continent": "Europe", "region_un": "Europe"}}, {"type": "Feature", "geometry": {"type": "Point", "coordinates": [-77.146688, 26.401789]}, "properties": {"name": "Bahamas", "name_long": "Bahamas", "continent": "North America", "region_un": "Americas"}}, {"type": "Feature", "geometry": {"type": "Point", "coordinates": [-58.738602, -51.608913]}, "properties": {"name": "Falkland Is.", "name_long": "Falkland Islands / Malvinas", "continent": "South America", "region_un": "Americas"}}, {"type": "Feature", "geometry": {"type": "Point", "coordinates": [9.679975, 61.357092]}, "properties": {"name": "Norway", "name_long": "Norway", "continent": "Europe", "region_un": "Europe"}}, {"type": "Feature", "geometry": {"type": "Point", "coordinates": [-39.335251, 74.319387]}, "properties": {"name": "Greenland", "name_long": "Greenland", "continent": "North America", "region_un": "Americas"}}, {"type": "Feature", "geometry": {"type": "Point", "coordinates": [69.122136, -49.303721]}, "properties": {"name": "Fr. S. Antarctic Lands", "name_long": "French Southern and Antarctic Lands", "continent": "Seven seas (open ocean)", "region_un": "Africa"}}, {"type": "Feature", "geometry": {"type": "Point", "coordinates": [125.854679, -8.803705]}, "properties": {"name": "Timor-Leste", "name_long": "Timor-Leste", "continent": "Asia", "region_un": "Asia"}}, {"type": "Feature", "geometry": {"type": "Point", "coordinates": [23.665734, -29.708776]}, "properties": {"name": "South Africa", "name_long": "South Africa", "continent": "Africa", "region_un": "Africa"}}, {"type": "Feature", "geometry": {"type": "Point", "coordinates": [28.246639, -29.480158]}, "properties": {"name": "Lesotho", "name_long": "Lesotho", "continent": "Africa", "region_un": "Africa"}}, {"type": "Feature", "geometry": {"type": "Point", "coordinates": [-102.289448, 23.919988]}, "properties": {"name": "Mexico", "name_long": "Mexico", "continent": "North America", "region_un": "Americas"}}, {"type": "Feature", "geometry": {"type": "Point", "coordinates": [-55.966942, -32.961127]}, "properties": {"name": "Uruguay", "name_long": "Uruguay", "continent": "South America", "region_un": "Americas"}}, {"type": "Feature", "geometry": {"type": "Point", "coordinates": [-49.55945, -12.098687]}, "properties": {"name": "Brazil", "name_long": "Brazil", "continent": "South America", "region_un": "Americas"}}, {"type": "Feature", "geometry": {"type": "Point", "coordinates": [-64.593433, -16.666015]}, "properties": {"name": "Bolivia", "name_long": "Bolivia", "continent": "South America", "region_un": "Americas"}}, {"type": "Feature", "geometry": {"type": "Point", "coordinates": [-72.90016, -12.976679]}, "properties": {"name": "Peru", "name_long": "Peru", "continent": "South America", "region_un": "Americas"}}, {"type": "Feature", "geometry": {"type": "Point", "coordinates": [-73.174347, 3.373111]}, "properties": {"name": "Colombia", "name_long": "Colombia", "continent": "South America", "region_un": "Americas"}}, {"type": "Feature", "geometry": {"type": "Point", "coordinates": [-80.352106, 8.72198]}, "properties": {"name": "Panama", "name_long": "Panama", "continent": "North America", "region_un": "Americas"}}, {"type": "Feature", "geometry": {"type": "Point", "coordinates": [-84.077922, 10.0651]}, "properties": {"name": "Costa Rica", "name_long": "Costa Rica", "continent": "North America", "region_un": "Americas"}}, {"type": "Feature", "geometry": {"type": "Point", "coordinates": [-85.069347, 12.670697]}, "properties": {"name": "Nicaragua", "name_long": "Nicaragua", "continent": "North America", "region_un": "Americas"}}, {"type": "Feature", "geometry": {"type": "Point", "coordinates": [-86.887604, 14.794801]}, "properties": {"name": "Honduras", "name_long": "Honduras", "continent": "North America", "region_un": "Americas"}}, {"type": "Feature", "geometry": {"type": "Point", "coordinates": [-88.890124, 13.685371]}, "properties": {"name": "El Salvador", "name_long": "El Salvador", "continent": "North America", "region_un": "Americas"}}, {"type": "Feature", "geometry": {"type": "Point", "coordinates": [-90.497134, 14.982133]}, "properties": {"name": "Guatemala", "name_long": "Guatemala", "continent": "North America", "region_un": "Americas"}}, {"type": "Feature", "geometry": {"type": "Point", "coordinates": [-88.712962, 17.202068]}, "properties": {"name": "Belize", "name_long": "Belize", "continent": "North America", "region_un": "Americas"}}, {"type": "Feature", "geometry": {"type": "Point", "coordinates": [-64.599381, 7.182476]}, "properties": {"name": "Venezuela", "name_long": "Venezuela", "continent": "South America", "region_un": "Americas"}}, {"type": "Feature", "geometry": {"type": "Point", "coordinates": [-58.942643, 5.124317]}, "properties": {"name": "Guyana", "name_long": "Guyana", "continent": "South America", "region_un": "Americas"}}, {"type": "Feature", "geometry": {"type": "Point", "coordinates": [-55.91094, 4.143987]}, "properties": {"name": "Suriname", "name_long": "Suriname", "continent": "South America", "region_un": "Americas"}}, {"type": "Feature", "geometry": {"type": "Point", "coordinates": [2.552275, 46.696113]}, "properties": {"name": "France", "name_long": "France", "continent": "Europe", "region_un": "Europe"}}, {"type": "Feature", "geometry": {"type": "Point", "coordinates": [-78.188375, -1.259076]}, "properties": {"name": "Ecuador", "name_long": "Ecuador", "continent": "South America", "region_un": "Americas"}}, {"type": "Feature", "geometry": {"type": "Point", "coordinates": [-66.481065, 18.234668]}, "properties": {"name": "Puerto Rico", "name_long": "Puerto Rico", "continent": "North America", "region_un": "Americas"}}, {"type": "Feature", "geometry": {"type": "Point", "coordinates": [-77.318767, 18.137124]}, "properties": {"name": "Jamaica", "name_long": "Jamaica", "continent": "North America", "region_un": "Americas"}}, {"type": "Feature", "geometry": {"type": "Point", "coordinates": [-77.975855, 21.334024]}, "properties": {"name": "Cuba", "name_long": "Cuba", "continent": "North America", "region_un": "Americas"}}, {"type": "Feature", "geometry": {"type": "Point", "coordinates": [29.925444, -18.91164]}, "properties": {"name": "Zimbabwe", "name_long": "Zimbabwe", "continent": "Africa", "region_un": "Africa"}}, {"type": "Feature", "geometry": {"type": "Point", "coordinates": [24.179216, -22.102634]}, "properties": {"name": "Botswana", "name_long": "Botswana", "continent": "Africa", "region_un": "Africa"}}, {"type": "Feature", "geometry": {"type": "Point", "coordinates": [17.108166, -20.575298]}, "properties": {"name": "Namibia", "name_long": "Namibia", "continent": "Africa", "region_un": "Africa"}}, {"type": "Feature", "geometry": {"type": "Point", "coordinates": [-14.778586, 15.138125]}, "properties": {"name": "Senegal", "name_long": "Senegal", "continent": "Africa", "region_un": "Africa"}}, {"type": "Feature", "geometry": {"type": "Point", "coordinates": [-2.038455, 18.692713]}, "properties": {"name": "Mali", "name_long": "Mali", "continent": "Africa", "region_un": "Africa"}}, {"type": "Feature", "geometry": {"type": "Point", "coordinates": [-9.740299, 19.587062]}, "properties": {"name": "Mauritania", "name_long": "Mauritania", "continent": "Africa", "region_un": "Africa"}}, {"type": "Feature", "geometry": {"type": "Point", "coordinates": [2.352018, 10.324775]}, "properties": {"name": "Benin", "name_long": "Benin", "continent": "Africa", "region_un": "Africa"}}, {"type": "Feature", "geometry": {"type": "Point", "coordinates": [9.504356, 17.446195]}, "properties": {"name": "Niger", "name_long": "Niger", "continent": "Africa", "region_un": "Africa"}}, {"type": "Feature", "geometry": {"type": "Point", "coordinates": [7.50322, 9.439799]}, "properties": {"name": "Nigeria", "name_long": "Nigeria", "continent": "Africa", "region_un": "Africa"}}, {"type": "Feature", "geometry": {"type": "Point", "coordinates": [12.473488, 4.585041]}, "properties": {"name": "Cameroon", "name_long": "Cameroon", "continent": "Africa", "region_un": "Africa"}}, {"type": "Feature", "geometry": {"type": "Point", "coordinates": [1.058113, 8.80722]}, "properties": {"name": "Togo", "name_long": "Togo", "continent": "Africa", "region_un": "Africa"}}, {"type": "Feature", "geometry": {"type": "Point", "coordinates": [-1.036941, 7.717639]}, "properties": {"name": "Ghana", "name_long": "Ghana", "continent": "Africa", "region_un": "Africa"}}, {"type": "Feature", "geometry": {"type": "Point", "coordinates": [-5.568618, 7.49139]}, "properties": {"name": "Côte d'Ivoire", "name_long": "Côte d'Ivoire", "continent": "Africa", "region_un": "Africa"}}, {"type": "Feature", "geometry": {"type": "Point", "coordinates": [-10.016402, 10.618516]}, "properties": {"name": "Guinea", "name_long": "Guinea", "continent": "Africa", "region_un": "Africa"}}, {"type": "Feature", "geometry": {"type": "Point", "coordinates": [-14.52413, 12.163712]}, "properties": {"name": "Guinea-Bissau", "name_long": "Guinea-Bissau", "continent": "Africa", "region_un": "Africa"}}, {"type": "Feature", "geometry": {"type": "Point", "coordinates": [-9.460379, 6.447177]}, "properties": {"name": "Liberia", "name_long": "Liberia", "continent": "Africa", "region_un": "Africa"}}, {"type": "Feature", "geometry": {"type": "Point", "coordinates": [-11.763677, 8.617449]}, "properties": {"name": "Sierra Leone", "name_long": "Sierra Leone", "continent": "Africa", "region_un": "Africa"}}, {"type": "Feature", "geometry": {"type": "Point", "coordinates": [-1.36388, 12.673048]}, "properties": {"name": "Burkina Faso", "name_long": "Burkina Faso", "continent": "Africa", "region_un": "Africa"}}, {"type": "Feature", "geometry": {"type": "Point", "coordinates": [20.906897, 6.989681]}, "properties": {"name": "Central African Rep.", "name_long": "Central African Republic", "continent": "Africa", "region_un": "Africa"}}, {"type": "Feature", "geometry": {"type": "Point", "coordinates": [15.9005, 0.142331]}, "properties": {"name": "Congo", "name_long": "Republic of the Congo", "continent": "Africa", "region_un": "Africa"}}, {"type": "Feature", "geometry": {"type": "Point", "coordinates": [11.835939, -0.437739]}, "properties": {"name": "Gabon", "name_long": "Gabon", "continent": "Africa", "region_un": "Africa"}}, {"type": "Feature", "geometry": {"type": "Point", "coordinates": [8.9902, 2.333]}, "properties": {"name": "Eq. Guinea", "name_long": "Equatorial Guinea", "continent": "Africa", "region_un": "Africa"}}, {"type": "Feature", "geometry": {"type": "Point", "coordinates": [26.395298, -14.660804]}, "properties": {"name": "Zambia", "name_long": "Zambia", "continent": "Africa", "region_un": "Africa"}}, {"type": "Feature", "geometry": {"type": "Point", "coordinates": [33.608082, -13.386737]}, "properties": {"name": "Malawi", "name_long": "Malawi", "continent": "Africa", "region_un": "Africa"}}, {"type": "Feature", "geometry": {"type": "Point", "coordinates": [37.83789, -13.94323]}, "properties": {"name": "Mozambique", "name_long": "Mozambique", "continent": "Africa", "region_un": "Africa"}}, {"type": "Feature", "geometry": {"type": "Point", "coordinates": [31.467264, -26.533676]}, "properties": {"name": "eSwatini", "name_long": "Kingdom of eSwatini", "continent": "Africa", "region_un": "Africa"}}, {"type": "Feature", "geometry": {"type": "Point", "coordinates": [17.984249, -12.182762]}, "properties": {"name": "Angola", "name_long": "Angola", "continent": "Africa", "region_un": "Africa"}}, {"type": "Feature", "geometry": {"type": "Point", "coordinates": [29.917086, -3.332836]}, "properties": {"name": "Burundi", "name_long": "Burundi", "continent": "Africa", "region_un": "Africa"}}, {"type": "Feature", "geometry": {"type": "Point", "coordinates": [34.847915, 30.911148]}, "properties": {"name": "Israel", "name_long": "Israel", "continent": "Asia", "region_un": "Asia"}}, {"type": "Feature", "geometry": {"type": "Point", "coordinates": [35.992892, 34.133368]}, "properties": {"name": "Lebanon", "name_long": "Lebanon", "continent": "Asia", "region_un": "Asia"}}, {"type": "Feature", "geometry": {"type": "Point", "coordinates": [46.704241, -18.628288]}, "properties": {"name": "Madagascar", "name_long": "Madagascar", "continent": "Africa", "region_un": "Africa"}}, {"type": "Feature", "geometry": {"type": "Point", "coordinates": [35.291341, 32.047431]}, "properties": {"name": "Palestine", "name_long": "Palestine", "continent": "Asia", "region_un": "Asia"}}, {"type": "Feature", "geometry": {"type": "Point", "coordinates": [-14.998318, 13.641721]}, "properties": {"name": "Gambia", "name_long": "The Gambia", "continent": "Africa", "region_un": "Africa"}}, {"type": "Feature", "geometry": {"type": "Point", "coordinates": [9.007881, 33.687263]}, "properties": {"name": "Tunisia", "name_long": "Tunisia", "continent": "Africa", "region_un": "Africa"}}, {"type": "Feature", "geometry": {"type": "Point", "coordinates": [2.808241, 27.397406]}, "properties": {"name": "Algeria", "name_long": "Algeria", "continent": "Africa", "region_un": "Africa"}}, {"type": "Feature", "geometry": {"type": "Point", "coordinates": [36.375991, 30.805025]}, "properties": {"name": "Jordan", "name_long": "Jordan", "continent": "Asia", "region_un": "Asia"}}, {"type": "Feature", "geometry": {"type": "Point", "coordinates": [54.547256, 23.466285]}, "properties": {"name": "United Arab Emirates", "name_long": "United Arab Emirates", "continent": "Asia", "region_un": "Asia"}}, {"type": "Feature", "geometry": {"type": "Point", "coordinates": [51.143509, 25.237383]}, "properties": {"name": "Qatar", "name_long": "Qatar", "continent": "Asia", "region_un": "Asia"}}, {"type": "Feature", "geometry": {"type": "Point", "coordinates": [47.313999, 29.413628]}, "properties": {"name": "Kuwait", "name_long": "Kuwait", "continent": "Asia", "region_un": "Asia"}}, {"type": "Feature", "geometry": {"type": "Point", "coordinates": [43.26181, 33.09403]}, "properties": {"name": "Iraq", "name_long": "Iraq", "continent": "Asia", "region_un": "Asia"}}, {"type": "Feature", "geometry": {"type": "Point", "coordinates": [57.336553, 22.120427]}, "properties": {"name": "Oman", "name_long": "Oman", "continent": "Asia", "region_un": "Asia"}}, {"type": "Feature", "geometry": {"type": "Point", "coordinates": [166.908762, -15.37153]}, "properties": {"name": "Vanuatu", "name_long": "Vanuatu", "continent": "Oceania", "region_un": "Oceania"}}, {"type": "Feature", "geometry": {"type": "Point", "coordinates": [104.50487, 12.647584]}, "properties": {"name": "Cambodia", "name_long": "Cambodia", "continent": "Asia", "region_un": "Asia"}}, {"type": "Feature", "geometry": {"type": "Point", "coordinates": [101.073198, 15.45974]}, "properties": {"name": "Thailand", "name_long": "Thailand", "continent": "Asia", "region_un": "Asia"}}, {"type": "Feature", "geometry": {"type": "Point", "coordinates": [102.533912, 19.431821]}, "properties": {"name": "Laos", "name_long": "Lao PDR", "continent": "Asia", "region_un": "Asia"}}, {"type": "Feature", "geometry": {"type": "Point", "coordinates": [95.804497, 21.573855]}, "properties": {"name": "Myanmar", "name_long": "Myanmar", "continent": "Asia", "region_un": "Asia"}}, {"type": "Feature", "geometry": {"type": "Point", "coordinates": [105.387292, 21.715416]}, "properties": {"name": "Vietnam", "name_long": "Vietnam", "continent": "Asia", "region_un": "Asia"}}, {"type": "Feature", "geometry": {"type": "Point", "coordinates": [126.444516, 39.885252]}, "properties": {"name": "North Korea", "name_long": "Dem. Rep. Korea", "continent": "Asia", "region_un": "Asia"}}, {"type": "Feature", "geometry": {"type": "Point", "coordinates": [128.129504, 36.384924]}, "properties": {"name": "South Korea", "name_long": "Republic of Korea", "continent": "Asia", "region_un": "Asia"}}, {"type": "Feature", "geometry": {"type": "Point", "coordinates": [104.150405, 45.997488]}, "properties": {"name": "Mongolia", "name_long": "Mongolia", "continent": "Asia", "region_un": "Asia"}}, {"type": "Feature", "geometry": {"type": "Point", "coordinates": [79.358105, 22.686852]}, "properties": {"name": "India", "name_long": "India", "continent": "Asia", "region_un": "Asia"}}, {"type": "Feature", "geometry": {"type": "Point", "coordinates": [89.684963, 24.214956]}, "properties": {"name": "Bangladesh", "name_long": "Bangladesh", "continent": "Asia", "region_un": "Asia"}}, {"type": "Feature", "geometry": {"type": "Point", "coordinates": [90.040294, 27.536685]}, "properties": {"name": "Bhutan", "name_long": "Bhutan", "continent": "Asia", "region_un": "Asia"}}, {"type": "Feature", "geometry": {"type": "Point", "coordinates": [83.639914, 28.297925]}, "properties": {"name": "Nepal", "name_long": "Nepal", "continent": "Asia", "region_un": "Asia"}}, {"type": "Feature", "geometry": {"type": "Point", "coordinates": [68.545632, 29.328389]}, "properties": {"name": "Pakistan", "name_long": "Pakistan", "continent": "Asia", "region_un": "Asia"}}, {"type": "Feature", "geometry": {"type": "Point", "coordinates": [66.496586, 34.164262]}, "properties": {"name": "Afghanistan", "name_long": "Afghanistan", "continent": "Asia", "region_un": "Asia"}}, {"type": "Feature", "geometry": {"type": "Point", "coordinates": [72.587276, 38.199835]}, "properties": {"name": "Tajikistan", "name_long": "Tajikistan", "continent": "Asia", "region_un": "Asia"}}, {"type": "Feature", "geometry": {"type": "Point", "coordinates": [74.532637, 41.66854]}, "properties": {"name": "Kyrgyzstan", "name_long": "Kyrgyzstan", "continent": "Asia", "region_un": "Asia"}}, {"type": "Feature", "geometry": {"type": "Point", "coordinates": [58.676647, 39.855246]}, "properties": {"name": "Turkmenistan", "name_long": "Turkmenistan", "continent": "Asia", "region_un": "Asia"}}, {"type": "Feature", "geometry": {"type": "Point", "coordinates": [54.931495, 32.166225]}, "properties": {"name": "Iran", "name_long": "Iran", "continent": "Asia", "region_un": "Asia"}}, {"type": "Feature", "geometry": {"type": "Point", "coordinates": [38.277783, 35.006636]}, "properties": {"name": "Syria", "name_long": "Syria", "continent": "Asia", "region_un": "Asia"}}, {"type": "Feature", "geometry": {"type": "Point", "coordinates": [44.800564, 40.459077]}, "properties": {"name": "Armenia", "name_long": "Armenia", "continent": "Asia", "region_un": "Asia"}}, {"type": "Feature", "geometry": {"type": "Point", "coordinates": [19.01705, 65.85918]}, "properties": {"name": "Sweden", "name_long": "Sweden", "continent": "Europe", "region_un": "Europe"}}, {"type": "Feature", "geometry": {"type": "Point", "coordinates": [28.417701, 53.821888]}, "properties": {"name": "Belarus", "name_long": "Belarus", "continent": "Europe", "region_un": "Europe"}}, {"type": "Feature", "geometry": {"type": "Point", "coordinates": [32.140865, 49.724739]}, "properties": {"name": "Ukraine", "name_long": "Ukraine", "continent": "Europe", "region_un": "Europe"}}, {"type": "Feature", "geometry": {"type": "Point", "coordinates": [19.490468, 51.990316]}, "properties": {"name": "Poland", "name_long": "Poland", "continent": "Europe", "region_un": "Europe"}}, {"type": "Feature", "geometry": {"type": "Point", "coordinates": [14.130515, 47.518859]}, "properties": {"name": "Austria", "name_long": "Austria", "continent": "Europe", "region_un": "Europe"}}, {"type": "Feature", "geometry": {"type": "Point", "coordinates": [19.447867, 47.086841]}, "properties": {"name": "Hungary", "name_long": "Hungary", "continent": "Europe", "region_un": "Europe"}}, {"type": "Feature", "geometry": {"type": "Point", "coordinates": [28.487904, 47.434999]}, "properties": {"name": "Moldova", "name_long": "Moldova", "continent": "Europe", "region_un": "Europe"}}, {"type": "Feature", "geometry": {"type": "Point", "coordinates": [24.972624, 45.733237]}, "properties": {"name": "Romania", "name_long": "Romania", "continent": "Europe", "region_un": "Europe"}}, {"type": "Feature", "geometry": {"type": "Point", "coordinates": [24.089932, 55.103703]}, "properties": {"name": "Lithuania", "name_long": "Lithuania", "continent": "Europe", "region_un": "Europe"}}, {"type": "Feature", "geometry": {"type": "Point", "coordinates": [25.458723, 57.066872]}, "properties": {"name": "Latvia", "name_long": "Latvia", "continent": "Europe", "region_un": "Europe"}}, {"type": "Feature", "geometry": {"type": "Point", "coordinates": [25.867126, 58.724865]}, "properties": {"name": "Estonia", "name_long": "Estonia", "continent": "Europe", "region_un": "Europe"}}, {"type": "Feature", "geometry": {"type": "Point", "coordinates": [9.678348, 50.961733]}, "properties": {"name": "Germany", "name_long": "Germany", "continent": "Europe", "region_un": "Europe"}}, {"type": "Feature", "geometry": {"type": "Point", "coordinates": [25.15709, 42.508785]}, "properties": {"name": "Bulgaria", "name_long": "Bulgaria", "continent": "Europe", "region_un": "Europe"}}, {"type": "Feature", "geometry": {"type": "Point", "coordinates": [21.72568, 39.492763]}, "properties": {"name": "Greece", "name_long": "Greece", "continent": "Europe", "region_un": "Europe"}}, {"type": "Feature", "geometry": {"type": "Point", "coordinates": [34.508268, 39.345388]}, "properties": {"name": "Turkey", "name_long": "Turkey", "continent": "Asia", "region_un": "Asia"}}, {"type": "Feature", "geometry": {"type": "Point", "coordinates": [20.11384, 40.654855]}, "properties": {"name": "Albania", "name_long": "Albania", "continent": "Europe", "region_un": "Europe"}}, {"type": "Feature", "geometry": {"type": "Point", "coordinates": [16.37241, 45.805799]}, "properties": {"name": "Croatia", "name_long": "Croatia", "continent": "Europe", "region_un": "Europe"}}, {"type": "Feature", "geometry": {"type": "Point", "coordinates": [7.463965, 46.719114]}, "properties": {"name": "Switzerland", "name_long": "Switzerland", "continent": "Europe", "region_un": "Europe"}}, {"type": "Feature", "geometry": {"type": "Point", "coordinates": [6.07762, 49.733732]}, "properties": {"name": "Luxembourg", "name_long": "Luxembourg", "continent": "Europe", "region_un": "Europe"}}, {"type": "Feature", "geometry": {"type": "Point", "coordinates": [4.800448, 50.785392]}, "properties": {"name": "Belgium", "name_long": "Belgium", "continent": "Europe", "region_un": "Europe"}}, {"type": "Feature", "geometry": {"type": "Point", "coordinates": [5.61144, 52.422211]}, "properties": {"name": "Netherlands", "name_long": "Netherlands", "continent": "Europe", "region_un": "Europe"}}, {"type": "Feature", "geometry": {"type": "Point", "coordinates": [-8.271754, 39.606675]}, "properties": {"name": "Portugal", "name_long": "Portugal", "continent": "Europe", "region_un": "Europe"}}, {"type": "Feature", "geometry": {"type": "Point", "coordinates": [-3.464718, 40.090953]}, "properties": {"name": "Spain", "name_long": "Spain", "continent": "Europe", "region_un": "Europe"}}, {"type": "Feature", "geometry": {"type": "Point", "coordinates": [-7.798588, 53.078726]}, "properties": {"name": "Ireland", "name_long": "Ireland", "continent": "Europe", "region_un": "Europe"}}, {"type": "Feature", "geometry": {"type": "Point", "coordinates": [165.084004, -21.064697]}, "properties": {"name": "New Caledonia", "name_long": "New Caledonia", "continent": "Oceania", "region_un": "Oceania"}}, {"type": "Feature", "geometry": {"type": "Point", "coordinates": [159.170468, -8.029548]}, "properties": {"name": "Solomon Is.", "name_long": "Solomon Islands", "continent": "Oceania", "region_un": "Oceania"}}, {"type": "Feature", "geometry": {"type": "Point", "coordinates": [172.787, -39.759]}, "properties": {"name": "New Zealand", "name_long": "New Zealand", "continent": "Oceania", "region_un": "Oceania"}}, {"type": "Feature", "geometry": {"type": "Point", "coordinates": [134.04972, -24.129522]}, "properties": {"name": "Australia", "name_long": "Australia", "continent": "Oceania", "region_un": "Oceania"}}, {"type": "Feature", "geometry": {"type": "Point", "coordinates": [80.704823, 7.581097]}, "properties": {"name": "Sri Lanka", "name_long": "Sri Lanka", "continent": "Asia", "region_un": "Asia"}}, {"type": "Feature", "geometry": {"type": "Point", "coordinates": [106.337289, 32.498178]}, "properties": {"name": "China", "name_long": "China", "continent": "Asia", "region_un": "Asia"}}, {"type": "Feature", "geometry": {"type": "Point", "coordinates": [120.868204, 23.652408]}, "properties": {"name": "Taiwan", "name_long": "Taiwan", "continent": "Asia", "region_un": "Asia"}}, {"type": "Feature", "geometry": {"type": "Point", "coordinates": [11.076907, 44.732482]}, "properties": {"name": "Italy", "name_long": "Italy", "continent": "Europe", "region_un": "Europe"}}, {"type": "Feature", "geometry": {"type": "Point", "coordinates": [9.018163, 55.966965]}, "properties": {"name": "Denmark", "name_long": "Denmark", "continent": "Europe", "region_un": "Europe"}}, {"type": "Feature", "geometry": {"type": "Point", "coordinates": [-2.116346, 54.402739]}, "properties": {"name": "United Kingdom", "name_long": "United Kingdom", "continent": "Europe", "region_un": "Europe"}}, {"type": "Feature", "geometry": {"type": "Point", "coordinates": [-18.673711, 64.779286]}, "properties": {"name": "Iceland", "name_long": "Iceland", "continent": "Europe", "region_un": "Europe"}}, {"type": "Feature", "geometry": {"type": "Point", "coordinates": [47.210994, 40.402387]}, "properties": {"name": "Azerbaijan", "name_long": "Azerbaijan", "continent": "Asia", "region_un": "Asia"}}, {"type": "Feature", "geometry": {"type": "Point", "coordinates": [43.735724, 41.870087]}, "properties": {"name": "Georgia", "name_long": "Georgia", "continent": "Asia", "region_un": "Asia"}}, {"type": "Feature", "geometry": {"type": "Point", "coordinates": [122.465, 11.198]}, "properties": {"name": "Philippines", "name_long": "Philippines", "continent": "Asia", "region_un": "Asia"}}, {"type": "Feature", "geometry": {"type": "Point", "coordinates": [113.83708, 2.528667]}, "properties": {"name": "Malaysia", "name_long": "Malaysia", "continent": "Asia", "region_un": "Asia"}}, {"type": "Feature", "geometry": {"type": "Point", "coordinates": [114.551943, 4.448298]}, "properties": {"name": "Brunei", "name_long": "Brunei Darussalam", "continent": "Asia", "region_un": "Asia"}}, {"type": "Feature", "geometry": {"type": "Point", "coordinates": [14.915312, 46.06076]}, "properties": {"name": "Slovenia", "name_long": "Slovenia", "continent": "Europe", "region_un": "Europe"}}, {"type": "Feature", "geometry": {"type": "Point", "coordinates": [27.276449, 63.252361]}, "properties": {"name": "Finland", "name_long": "Finland", "continent": "Europe", "region_un": "Europe"}}, {"type": "Feature", "geometry": {"type": "Point", "coordinates": [19.049868, 48.734044]}, "properties": {"name": "Slovakia", "name_long": "Slovakia", "continent": "Europe", "region_un": "Europe"}}, {"type": "Feature", "geometry": {"type": "Point", "coordinates": [15.377555, 49.882364]}, "properties": {"name": "Czechia", "name_long": "Czech Republic", "continent": "Europe", "region_un": "Europe"}}, {"type": "Feature", "geometry": {"type": "Point", "coordinates": [38.285566, 15.787401]}, "properties": {"name": "Eritrea", "name_long": "Eritrea", "continent": "Africa", "region_un": "Africa"}}, {"type": "Feature", "geometry": {"type": "Point", "coordinates": [138.44217, 36.142538]}, "properties": {"name": "Japan", "name_long": "Japan", "continent": "Asia", "region_un": "Asia"}}, {"type": "Feature", "geometry": {"type": "Point", "coordinates": [-60.146394, -21.674509]}, "properties": {"name": "Paraguay", "name_long": "Paraguay", "continent": "South America", "region_un": "Americas"}}, {"type": "Feature", "geometry": {"type": "Point", "coordinates": [45.874383, 15.328226]}, "properties": {"name": "Yemen", "name_long": "Yemen", "continent": "Asia", "region_un": "Asia"}}, {"type": "Feature", "geometry": {"type": "Point", "coordinates": [44.6996, 23.806908]}, "properties": {"name": "Saudi Arabia", "name_long": "Saudi Arabia", "continent": "Asia", "region_un": "Asia"}}, {"type": "Feature", "geometry": {"type": "Point", "coordinates": [35.885455, -79.843222]}, "properties": {"name": "Antarctica", "name_long": "Antarctica", "continent": "Antarctica", "region_un": "Antarctica"}}, {"type": "Feature", "geometry": {"type": "Point", "coordinates": [33.692434, 35.216071]}, "properties": {"name": "N. Cyprus", "name_long": "Northern Cyprus", "continent": "Asia", "region_un": "Asia"}}, {"type": "Feature", "geometry": {"type": "Point", "coordinates": [33.084182, 34.913329]}, "properties": {"name": "Cyprus", "name_long": "Cyprus", "continent": "Asia", "region_un": "Asia"}}, {"type": "Feature", "geometry": {"type": "Point", "coordinates": [-7.187296, 31.650723]}, "properties": {"name": "Morocco", "name_long": "Morocco", "continent": "Africa", "region_un": "Africa"}}, {"type": "Feature", "geometry": {"type": "Point", "coordinates": [29.445837, 26.186173]}, "properties": {"name": "Egypt", "name_long": "Egypt", "continent": "Africa", "region_un": "Africa"}}, {"type": "Feature", "geometry": {"type": "Point", "coordinates": [18.011015, 26.638944]}, "properties": {"name": "Libya", "name_long": "Libya", "continent": "Africa", "region_un": "Africa"}}, {"type": "Feature", "geometry": {"type": "Point", "coordinates": [39.0886, 8.032795]}, "properties": {"name": "Ethiopia", "name_long": "Ethiopia", "continent": "Africa", "region_un": "Africa"}}, {"type": "Feature", "geometry": {"type": "Point", "coordinates": [42.498825, 11.976343]}, "properties": {"name": "Djibouti", "name_long": "Djibouti", "continent": "Africa", "region_un": "Africa"}}, {"type": "Feature", "geometry": {"type": "Point", "coordinates": [46.731595, 9.443889]}, "properties": {"name": "Somaliland", "name_long": "Somaliland", "continent": "Africa", "region_un": "Africa"}}, {"type": "Feature", "geometry": {"type": "Point", "coordinates": [32.948555, 1.972589]}, "properties": {"name": "Uganda", "name_long": "Uganda", "continent": "Africa", "region_un": "Africa"}}, {"type": "Feature", "geometry": {"type": "Point", "coordinates": [30.103894, -1.897196]}, "properties": {"name": "Rwanda", "name_long": "Rwanda", "continent": "Africa", "region_un": "Africa"}}, {"type": "Feature", "geometry": {"type": "Point", "coordinates": [18.06841, 44.091051]}, "properties": {"name": "Bosnia and Herz.", "name_long": "Bosnia and Herzegovina", "continent": "Europe", "region_un": "Europe"}}, {"type": "Feature", "geometry": {"type": "Point", "coordinates": [21.555839, 41.558223]}, "properties": {"name": "North Macedonia", "name_long": "North Macedonia", "continent": "Europe", "region_un": "Europe"}}, {"type": "Feature", "geometry": {"type": "Point", "coordinates": [20.787989, 44.189919]}, "properties": {"name": "Serbia", "name_long": "Serbia", "continent": "Europe", "region_un": "Europe"}}, {"type": "Feature", "geometry": {"type": "Point", "coordinates": [19.143727, 42.803101]}, "properties": {"name": "Montenegro", "name_long": "Montenegro", "continent": "Europe", "region_un": "Europe"}}, {"type": "Feature", "geometry": {"type": "Point", "coordinates": [20.860719, 42.593587]}, "properties": {"name": "Kosovo", "name_long": "Kosovo", "continent": "Europe", "region_un": "Europe"}}, {"type": "Feature", "geometry": {"type": "Point", "coordinates": [-60.9184, 10.9989]}, "properties": {"name": "Trinidad and Tobago", "name_long": "Trinidad and Tobago", "continent": "North America", "region_un": "Americas"}}, {"type": "Feature", "geometry": {"type": "Point", "coordinates": [30.390151, 7.230477]}, "properties": {"name": "S. Sudan", "name_long": "South Sudan", "continent": "Africa", "region_un": "Africa"}}]}